NORAD_CAT_ID,OBJECT_NAME,OBJECT_TYPE,EPOCH,MEAN_MOTION,ECCENTRICITY,INCLINATION,RA_OF_ASC_NODE,ARG_OF_PERICENTER,MEAN_ANOMALY,BSTAR,MEAN_MOTION_DOT,MEAN_MOTION_DDOT,TLE_LINE0,TLE_LINE1,TLE_LINE2,SEMIMAJOR_AXIS,PERIOD,APOGEE,PERIGEE,DECAYED
52852.0,STARLINK-4184,PAYLOAD,2024-02-16 13:18:31,15.0884477,0.0001334,53.2167,160.5882,95.8034,264.311,4.3373e-05,4.03e-06,0.0,0 STARLINK-4184,1 52852U 22062Y   24047.55453169  .00000403  00000-0  43373-4 0  9990,2 52852  53.2167 160.5882 0001334  95.8034 264.3110 15.08844770 92370,6917.866,95.437,540.654,538.808,0.0
52852.0,STARLINK-4184,PAYLOAD,2024-02-16 14:53:54,15.08853582,0.0001384,53.217,160.2882,77.6685,282.4462,7.3737e-05,8.86e-06,0.0,0 STARLINK-4184,1 52852U 22062Y   24047.62076422  .00000886  00000-0  73737-4 0  9993,2 52852  53.2170 160.2882 0001384  77.6685 282.4462 15.08853582 92873,6917.839,95.437,540.661,538.746,0.0
52852.0,STARLINK-4184,PAYLOAD,2024-02-17 11:33:56,15.08835034,0.0001661,53.2176,156.4257,84.535,275.5832,3.9188e-05,3.36e-06,0.0,0 STARLINK-4184,1 52852U 22062Y   24048.48189915  .00000336  00000-0  39188-4 0  9992,2 52852  53.2176 156.4257 0001661  84.5350 275.5832 15.08835034 93008,6917.896,95.438,540.91,538.612,0.0
52852.0,STARLINK-4184,PAYLOAD,2024-02-17 14:44:41,15.08839375,0.0001422,53.2166,155.8305,85.9326,274.1828,7.314e-05,8.76e-06,0.0,0 STARLINK-4184,1 52852U 22062Y   24048.61437491  .00000876  00000-0  73140-4 0  9997,2 52852  53.2166 155.8305 0001422  85.9326 274.1828 15.08839375 92536,6917.882,95.438,540.731,538.764,0.0
52852.0,STARLINK-4184,PAYLOAD,2024-02-18 13:00:05,15.08842112,0.0001421,53.2152,151.6657,83.786,276.3294,2.0312e-05,3.5e-07,0.0,0 STARLINK-4184,1 52852U 22062Y   24049.54173532  .00000035  00000-0  20312-4 0  9993,2 52852  53.2152 151.6657 0001421  83.7860 276.3294 15.08842112 92672,6917.874,95.437,540.722,538.756,0.0
52852.0,STARLINK-4184,PAYLOAD,2024-02-19 12:50:53,15.08833601,0.0001402,53.2164,147.2064,88.2616,271.8537,8.2077e-05,1.018e-05,0.0,0 STARLINK-4184,1 52852U 22062Y   24050.53533978  .00001018  00000-0  82077-4 0  9996,2 52852  53.2164 147.2064 0001402  88.2616 271.8537 15.08833601 93311,6917.9,95.438,540.735,538.795,0.0
52852.0,STARLINK-4184,PAYLOAD,2024-02-20 12:41:40,15.0884372,0.0001522,53.2172,142.7442,97.4396,262.6769,3.1332e-05,2.11e-06,0.0,0 STARLINK-4184,1 52852U 22062Y   24051.52893670  .00000211  00000-0  31332-4 0  9996,2 52852  53.2172 142.7442 0001522  97.4396 262.6769 15.08843720 92979,6917.869,95.437,540.787,538.681,0.0
52852.0,STARLINK-4184,PAYLOAD,2024-02-21 12:32:27,15.08842242,0.0001337,53.2171,138.2847,91.3221,268.7924,0.00010249,1.344e-05,0.0,0 STARLINK-4184,1 52852U 22062Y   24052.52253614  .00001344  00000-0  10249-3 0  9996,2 52852  53.2171 138.2847 0001337  91.3221 268.7924 15.08842242 93127,6917.874,95.437,540.663,538.814,0.0
52852.0,STARLINK-4184,PAYLOAD,2024-02-21 22:04:46,15.08836548,0.0001294,53.2167,136.4998,88.1655,271.9485,3.335e-05,2.43e-06,0.0,0 STARLINK-4184,1 52852U 22062Y   24052.91998126  .00000243  00000-0  33350-4 0  9999,2 52852  53.2167 136.4998 0001294  88.1655 271.9485 15.08836548 93182,6917.891,95.438,540.651,538.861,0.0
52852.0,STARLINK-4184,PAYLOAD,2024-02-22 04:26:19,15.08839932,0.0001364,53.2173,135.3136,104.3483,255.766,-5.2586e-05,-1.125e-05,0.0,0 STARLINK-4184,1 52852U 22062Y   24053.18494316 -.00001125  00000-0 -52586-4 0  9995,2 52852  53.2173 135.3136 0001364 104.3483 255.7660 15.08839932 93713,6917.881,95.438,540.689,538.802,0.0
52852.0,STARLINK-4184,PAYLOAD,2024-02-22 10:47:51,15.08837807,0.0001422,53.2182,134.1238,101.117,258.9982,-2.6313e-05,-7.07e-06,0.0,0 STARLINK-4184,1 52852U 22062Y   24053.44990456 -.00000707  00000-0 -26313-4 0  9994,2 52852  53.2182 134.1238 0001422 101.1170 258.9982 15.08837807 93267,6917.887,95.438,540.736,538.768,0.0
52852.0,STARLINK-4184,PAYLOAD,2024-02-23 10:38:37,15.08853098,0.0001418,53.2183,129.6639,91.542,268.5735,2.0289e-05,3.5e-07,0.0,0 STARLINK-4184,1 52852U 22062Y   24054.44349308  .00000035  00000-0  20289-4 0  9997,2 52852  53.2183 129.6639 0001418  91.5420 268.5735 15.08853098 93901,6917.84,95.437,540.686,538.724,0.0
52852.0,STARLINK-4184,PAYLOAD,2024-02-24 12:04:49,15.08831312,0.0001547,53.2177,124.9026,100.1017,260.0149,-1.9913e-05,-6.05e-06,0.0,0 STARLINK-4184,1 52852U 22062Y   24055.50335227 -.00000605  00000-0 -19913-4 0  9997,2 52852  53.2177 124.9026 0001547 100.1017 260.0149 15.08831312 94063,6917.907,95.438,540.842,538.702,0.0
52852.0,STARLINK-4184,PAYLOAD,2024-02-24 13:40:12,15.08832567,0.0001534,53.2175,124.6047,103.3763,256.74,-1.2287e-05,-4.83e-06,0.0,0 STARLINK-4184,1 52852U 22062Y   24055.56959135 -.00000483  00000-0 -12287-4 0  9994,2 52852  53.2175 124.6047 0001534 103.3763 256.7400 15.08832567 93581,6917.903,95.438,540.829,538.707,0.0
52852.0,STARLINK-4184,PAYLOAD,2024-02-25 05:34:03,15.08845119,0.0001377,53.2157,121.6325,109.7943,250.3198,6.5042e-06,-1.84e-06,0.0,0 STARLINK-4184,1 52852U 22062Y   24056.23198453 -.00000184  00000-0  65042-5 0  9992,2 52852  53.2157 121.6325 0001377 109.7943 250.3198 15.08845119 94179,6917.865,95.437,540.682,538.777,0.0
52852.0,STARLINK-4184,PAYLOAD,2024-02-25 11:55:35,15.08855731,0.000175,53.217,120.441,109.2207,250.8975,0.00010164,1.331e-05,0.0,0 STARLINK-4184,1 52852U 22062Y   24056.49693354  .00001331  00000-0  10164-3 0  9997,2 52852  53.2170 120.4410 0001750 109.2207 250.8975 15.08855731 94213,6917.832,95.437,540.908,538.487,0.0
52852.0,STARLINK-4184,PAYLOAD,2024-02-25 13:30:57,15.08857523,0.0001759,53.2169,120.1423,112.0742,248.0437,0.00015638,2.203e-05,0.0,0 STARLINK-4184,1 52852U 22062Y   24056.56317089  .00002203  00000-0  15638-3 0  9993,2 52852  53.2169 120.1423 0001759 112.0742 248.0437 15.08857523 93736,6917.827,95.436,540.909,538.475,0.0
52852.0,STARLINK-4184,PAYLOAD,2024-02-25 21:27:54,15.08841614,0.0001397,53.2175,118.6557,102.1571,257.9578,0.00016848,2.395e-05,0.0,0 STARLINK-4184,1 52852U 22062Y   24056.89437962  .00002395  00000-0  16848-3 0  9998,2 52852  53.2175 118.6557 0001397 102.1571 257.9578 15.08841614 93785,6917.875,95.437,540.707,538.774,0.0
52852.0,STARLINK-4184,PAYLOAD,2024-02-26 03:49:27,15.08842496,0.0001546,53.2169,117.4688,96.4106,263.7062,0.0001721,2.452e-05,0.0,0 STARLINK-4184,1 52852U 22062Y   24057.15934080  .00002452  00000-0  17210-3 0  9999,2 52852  53.2169 117.4688 0001546  96.4106 263.7062 15.08842496 94317,6917.873,95.437,540.807,538.668,0.0
52852.0,STARLINK-4184,PAYLOAD,2024-02-26 10:10:58,15.0886096,0.000184,53.2176,116.2794,103.181,256.9387,0.00032242,4.85e-05,0.0,0 STARLINK-4184,1 52852U 22062Y   24057.42428448  .00004850  00000-0  32242-3 0  9991,2 52852  53.2176 116.2794 0001840 103.1810 256.9387 15.08860960 94359,6917.816,95.436,540.954,538.408,0.0
52852.0,STARLINK-4184,PAYLOAD,2024-02-27 03:40:13,15.08844987,0.0001811,53.2158,113.0089,101.8908,258.2287,-0.00010352,-1.936e-05,0.0,0 STARLINK-4184,1 52852U 22062Y   24058.15293727 -.00001936  00000-0 -10352-3 0  9994,2 52852  53.2158 113.0089 0001811 101.8908 258.2287 15.08844987 94469,6917.865,95.437,540.983,538.477,0.0
52852.0,STARLINK-4184,PAYLOAD,2024-02-27 10:01:46,15.08832741,0.0001264,53.216,111.8192,87.9191,272.1946,-0.00023245,-3.985e-05,0.0,0 STARLINK-4184,1 52852U 22062Y   24058.41790336 -.00003985  00000-0 -23245-3 0  9992,2 52852  53.2160 111.8192 0001264  87.9191 272.1946 15.08832741 94500,6917.903,95.438,540.642,538.893,0.0
52852.0,STARLINK-4184,PAYLOAD,2024-02-28 09:52:33,15.08842514,0.0001197,53.2161,107.359,85.6267,274.4862,0.0001395,1.933e-05,0.0,0 STARLINK-4184,1 52852U 22062Y   24059.41150186  .00001933  00000-0  13950-3 0  9997,2 52852  53.2161 107.3590 0001197  85.6267 274.4862 15.08842514 94654,6917.873,95.437,540.566,538.91,0.0
52852.0,STARLINK-4184,PAYLOAD,2024-02-29 09:43:21,15.08840233,0.0001258,53.216,102.8988,83.0137,277.0998,0.00032087,4.822e-05,0.0,0 STARLINK-4184,1 52852U 22062Y   24060.40510727  .00004822  00000-0  32087-3 0  9991,2 52852  53.2160 102.8988 0001258  83.0137 277.0998 15.08840233 94802,6917.88,95.438,540.615,538.874,0.0
52852.0,STARLINK-4184,PAYLOAD,2024-02-29 19:15:40,15.08838165,0.0001335,53.2162,101.1128,82.0512,278.0632,0.0001019,1.334e-05,0.0,0 STARLINK-4184,1 52852U 22062Y   24060.80254782  .00001334  00000-0  10190-3 0  9997,2 52852  53.2162 101.1128 0001335  82.0512 278.0632 15.08838165 94373,6917.886,95.438,540.675,538.827,0.0
52852.0,STARLINK-4184,PAYLOAD,2024-03-01 03:12:36,15.08833495,0.0001447,53.2173,99.6289,86.1687,273.947,-3.2408e-05,-8.04e-06,0.0,0 STARLINK-4184,1 52852U 22062Y   24061.13375145 -.00000804  00000-0 -32408-4 0  9991,2 52852  53.2173  99.6289 0001447  86.1687 273.9470 15.08833495 94911,6917.9,95.438,540.766,538.764,0.0
52852.0,STARLINK-4184,PAYLOAD,2024-03-01 09:34:08,15.08837512,0.0001437,53.2181,98.4394,95.5605,264.5551,5.0453e-05,5.15e-06,0.0,0 STARLINK-4184,1 52852U 22062Y   24061.39871254  .00000515  00000-0  50453-4 0  9998,2 52852  53.2181  98.4394 0001437  95.5605 264.5551 15.08837512 94467,6917.888,95.438,540.747,538.759,0.0
52852.0,STARLINK-4184,PAYLOAD,2024-03-01 19:06:27,15.08838586,0.0001447,53.2181,96.6552,94.9305,265.1853,5.3524e-05,5.64e-06,0.0,0 STARLINK-4184,1 52852U 22062Y   24061.79615229  .00000564  00000-0  53524-4 0  9996,2 52852  53.2181  96.6552 0001447  94.9305 265.1853 15.08838586 94525,6917.885,95.438,540.751,538.749,0.0
52852.0,STARLINK-4184,PAYLOAD,2024-03-02 07:49:32,15.08845778,0.0001488,53.2173,94.2761,100.107,260.009,0.00017239,2.457e-05,0.0,0 STARLINK-4184,1 52852U 22062Y   24062.32606609  .00002457  00000-0  17239-3 0  9993,2 52852  53.2173  94.2761 0001488 100.1070 260.0090 15.08845778 95097,6917.863,95.437,540.757,538.698,0.0
52852.0,STARLINK-4184,PAYLOAD,2024-03-03 09:15:42,15.08839646,0.000131,53.2149,89.5158,90.1394,269.9748,7.9368e-05,9.75e-06,0.0,0 STARLINK-4184,1 52852U 22062Y   24063.38591080  .00000975  00000-0  79368-4 0  9991,2 52852  53.2149  89.5158 0001310  90.1394 269.9748 15.08839646 95251,6917.881,95.438,540.653,538.84,0.0
